{"type": "FeatureCollection", "features": [ {"type": "Feature", "properties": {"norad_id": 38725, "name": "FENGYUN 1C DEB", "group": "fengyun-1c-debris", "lat": -80.42556847465313, "lon": -121.58282690321835, "alt_km": 739.2761409156901, "timestamp": "2025-12-26T10:30:50.557775+00:00", "meta": {"OBJECT_NAME": "FENGYUN 1C DEB", "OBJECT_ID": "1999-025ETS", "EPOCH": "2025-12-24T14:01:00.000192", "MEAN_MOTION": 14.43026373, "ECCENTRICITY": 0.00354571, "INCLINATION": 98.871, "RA_OF_ASC_NODE": 124.2922, "ARG_OF_PERICENTER": 222.3443, "MEAN_ANOMALY": 137.5008, "EPHEMERIS_TYPE": 0, "CLASSIFICATION_TYPE": "U", "NORAD_CAT_ID": 38725, "ELEMENT_SET_NO": 999, "REV_AT_EPOCH": 73523, "BSTAR": 0.0028859508, "MEAN_MOTION_DOT": 9.707e-05, "MEAN_MOTION_DDOT": 0}, "tle": {"line1": "1 38725U 99025ETS 25358.58402778  .00009707  00000+0  28860-2 0  9992", "line2": "2 38725  98.8710 124.2922 0035457 222.3443 137.5008 14.43026373735233"}}, "geometry": {"type": "Point", "coordinates": [-121.58282690321835, -80.42556847465313]}}, {"type": "Feature", "properties": {"norad_id": 38726, "name": "FENGYUN 1C DEB", "group": "fengyun-1c-debris", "lat": 12.64233075290092, "lon": 24.902543194144187, "alt_km": 545.892710364089, "timestamp": "2025-12-26T10:30:50.557784+00:00", "meta": {"OBJECT_NAME": "FENGYUN 1C DEB", "OBJECT_ID": "1999-025ETT", "EPOCH": "2025-12-18T07:44:42.644256", "MEAN_MOTION": 15.04018095, "ECCENTRICITY": 0.00236822, "INCLINATION": 99.1359, "RA_OF_ASC_NODE": 17.3874, "ARG_OF_PERICENTER": 108.0917, "MEAN_ANOMALY": 252.2886, "EPHEMERIS_TYPE": 0, "CLASSIFICATION_TYPE": "U", "NORAD_CAT_ID": 38726, "ELEMENT_SET_NO": 999, "REV_AT_EPOCH": 69939, "BSTAR": 0.0056393313, "MEAN_MOTION_DOT": 0.00079186, "MEAN_MOTION_DDOT": 0}, "tle": {"line1": "1 38726U 99025ETT 25352.32271579  .00079186  00000+0  56393-2 0  9992", "line2": "2 38726  99.1359  17.3874 0023682 108.0917 252.2886 15.04018095699393"}}, "geometry": {"type": "Point", "coordinates": [24.902543194144187, 12.64233075290092]}}, {"type": "Feature", "properties": {"norad_id": 38728, "name": "FENGYUN 1C DEB", "group": "fengyun-1c-debris", "lat": 75.73411041616366, "lon": -50.29387685114186, "alt_km": 629.6131304320552, "timestamp": "2025-12-26T10:30:50.557794+00:00", "meta": {"OBJECT_NAME": "FENGYUN 1C DEB", "OBJECT_ID": "1999-025ETV", "EPOCH": "2025-12-26T03:55:53.081184", "MEAN_MOTION": 14.70806488, "ECCENTRICITY": 0.0074617, "INCLINATION": 99.2616, "RA_OF_ASC_NODE": 349.3183, "ARG_OF_PERICENTER": 13.9217, "MEAN_ANOMALY": 52.9999, "EPHEMERIS_TYPE": 0, "CLASSIFICATION_TYPE": "U", "NORAD_CAT_ID": 38728, "ELEMENT_SET_NO": 999, "REV_AT_EPOCH": 65808, "BSTAR": 0.001461, "MEAN_MOTION_DOT": 9.262e-05, "MEAN_MOTION_DDOT": 0}, "tle": {"line1": "1 38728U 99025ETV 25360.16380881  .00009262  00000+0  14610-2 0  9996", "line2": "2 38728  99.2616 349.3183 0074617  13.9217  52.9999 14.70806488658088"}}, "geometry": {"type": "Point", "coordinates": [-50.29387685114186, 75.73411041616366]}}, {"type": "Feature", "properties": {"norad_id": 38789, "name": "FENGYUN 1C DEB", "group": "fengyun-1c-debris", "lat": -54.50656499159673, "lon": 54.49428540102166, "alt_km": 791.2514370842719, "timestamp": "2025-12-26T10:30:50.557804+00:00", "meta": {"OBJECT_NAME": "FENGYUN 1C DEB", "OBJECT_ID": "1999-025EUD", "EPOCH": "2025-12-16T11:04:27.892416", "MEAN_MOTION": 14.45831603, "ECCENTRICITY": 0.02075268, "INCLINATION": 98.8566, "RA_OF_ASC_NODE": 236.7044, "ARG_OF_PERICENTER": 14.1855, "MEAN_ANOMALY": 164.1034, "EPHEMERIS_TYPE": 0, "CLASSIFICATION_TYPE": "U", "NORAD_CAT_ID": 38789, "ELEMENT_SET_NO": 999, "REV_AT_EPOCH": 61899, "BSTAR": 0.00050950207, "MEAN_MOTION_DOT": 2.303e-05, "MEAN_MOTION_DDOT": 0}, "tle": {"line1": "1 38789U 99025EUD 25350.46143394  .00002303  00000+0  50950-3 0  9998", "line2": "2 38789  98.8566 236.7044 0207526  14.1855 164.1034 14.45831603618998"}}, "geometry": {"type": "Point", "coordinates": [54.49428540102166, -54.50656499159673]}}, {"type": "Feature", "properties": {"norad_id": 38795, "name": "FENGYUN 1C DEB", "group": "fengyun-1c-debris", "lat": 54.744902147033514, "lon": 8.797694135573272, "alt_km": 1507.5006906891467, "timestamp": "2025-12-26T10:30:50.557814+00:00", "meta": {"OBJECT_NAME": "FENGYUN 1C DEB", "OBJECT_ID": "1999-025EUK", "EPOCH": "2025-12-19T08:28:58.853280", "MEAN_MOTION": 13.29929799, "ECCENTRICITY": 0.050261, "INCLINATION": 98.6991, "RA_OF_ASC_NODE": 15.2992, "ARG_OF_PERICENTER": 239.3725, "MEAN_ANOMALY": 115.6931, "EPHEMERIS_TYPE": 0, "CLASSIFICATION_TYPE": "U", "NORAD_CAT_ID": 38795, "ELEMENT_SET_NO": 999, "REV_AT_EPOCH": 78600, "BSTAR": 0.0020267, "MEAN_MOTION_DOT": 1.866e-05, "MEAN_MOTION_DDOT": 0}, "tle": {"line1": "1 38795U 99025EUK 25353.35345895  .00001866  00000+0  20267-2 0  9996", "line2": "2 38795  98.6991  15.2992 0502610 239.3725 115.6931 13.29929799786006"}}, "geometry": {"type": "Point", "coordinates": [8.797694135573272, 54.744902147033514]}}, {"type": "Feature", "properties": {"norad_id": 38797, "name": "FENGYUN 1C DEB", "group": "fengyun-1c-debris", "lat": -5.914045539702279, "lon": -106.09609546130385, "alt_km": 1210.573082417981, "timestamp": "2025-12-26T10:30:50.557824+00:00", "meta": {"OBJECT_NAME": "FENGYUN 1C DEB", "OBJECT_ID": "1999-025EUM", "EPOCH": "2025-12-21T10:37:18.137856", "MEAN_MOTION": 13.61613976, "ECCENTRICITY": 0.02449187, "INCLINATION": 99.4843, "RA_OF_ASC_NODE": 248.0555, "ARG_OF_PERICENTER": 199.0138, "MEAN_ANOMALY": 160.1737, "EPHEMERIS_TYPE": 0, "CLASSIFICATION_TYPE": "U", "NORAD_CAT_ID": 38797, "ELEMENT_SET_NO": 999, "REV_AT_EPOCH": 59401, "BSTAR": 0.00019998345, "MEAN_MOTION_DOT": 1.44e-06, "MEAN_MOTION_DDOT": 0}, "tle": {"line1": "1 38797U 99025EUM 25355.44257104  .00000144  00000+0  19998-3 0  9993", "line2": "2 38797  99.4843 248.0555 0244918 199.0138 160.1737 13.61613976594018"}}, "geometry": {"type": "Point", "coordinates": [-106.09609546130385, -5.914045539702279]}}, {"type": "Feature", "properties": {"norad_id": 38799, "name": "FENGYUN 1C DEB", "group": "fengyun-1c-debris", "lat": -23.750017733801073, "lon": 79.57037206613535, "alt_km": 631.7369152937918, "timestamp": "2025-12-26T10:30:50.557834+00:00", "meta": {"OBJECT_NAME": "FENGYUN 1C DEB", "OBJECT_ID": "1999-025EUP", "EPOCH": "2025-12-23T11:21:05.361408", "MEAN_MOTION": 14.48820928, "ECCENTRICITY": 0.01632234, "INCLINATION": 98.4043, "RA_OF_ASC_NODE": 72.8877, "ARG_OF_PERICENTER": 317.4693, "MEAN_ANOMALY": 41.395, "EPHEMERIS_TYPE": 0, "CLASSIFICATION_TYPE": "U", "NORAD_CAT_ID": 38799, "ELEMENT_SET_NO": 999, "REV_AT_EPOCH": 64194, "BSTAR": 0.00093364434, "MEAN_MOTION_DOT": 4.126e-05, "MEAN_MOTION_DDOT": 0}, "tle": {"line1": "1 38799U 99025EUP 25357.47297872  .00004126  00000+0  93364-3 0  9999", "line2": "2 38799  98.4043  72.8877 0163223 317.4693  41.3950 14.48820928641947"}}, "geometry": {"type": "Point", "coordinates": [79.57037206613535, -23.750017733801073]}}, {"type": "Feature", "properties": {"norad_id": 38801, "name": "FENGYUN 1C DEB", "group": "fengyun-1c-debris", "lat": 29.42669669818514, "lon": -124.77471808738663, "alt_km": 1042.6264229884719, "timestamp": "2025-12-26T10:30:50.557844+00:00", "meta": {"OBJECT_NAME": "FENGYUN 1C DEB", "OBJECT_ID": "1999-025EUR", "EPOCH": "2025-12-24T22:59:07.255104", "MEAN_MOTION": 14.24863429, "ECCENTRICITY": 0.03462698, "INCLINATION": 98.3717, "RA_OF_ASC_NODE": 49.0453, "ARG_OF_PERICENTER": 316.0044, "MEAN_ANOMALY": 166.2141, "EPHEMERIS_TYPE": 0, "CLASSIFICATION_TYPE": "U", "NORAD_CAT_ID": 38801, "ELEMENT_SET_NO": 999, "REV_AT_EPOCH": 64534, "BSTAR": 0.00054397541, "MEAN_MOTION_DOT": 2.326e-05, "MEAN_MOTION_DDOT": 0}, "tle": {"line1": "1 38801U 99025EUR 25358.95772286  .00002326  00000+0  54398-3 0  9998", "line2": "2 38801  98.3717  49.0453 0346269 316.0044 166.2141 14.24863429645346"}}, "geometry": {"type": "Point", "coordinates": [-124.77471808738663, 29.42669669818514]}}, {"type": "Feature", "properties": {"norad_id": 38803, "name": "FENGYUN 1C DEB", "group": "fengyun-1c-debris", "lat": -33.044069665061464, "lon": 10.81234300142649, "alt_km": 779.1970107004872, "timestamp": "2025-12-26T10:30:50.557854+00:00", "meta": {"OBJECT_NAME": "FENGYUN 1C DEB", "OBJECT_ID": "1999-025EUT", "EPOCH": "2025-12-25T22:51:47.888640", "MEAN_MOTION": 14.23791722, "ECCENTRICITY": 0.0063593, "INCLINATION": 99.1379, "RA_OF_ASC_NODE": 4.2982, "ARG_OF_PERICENTER": 358.616, "MEAN_ANOMALY": 1.4832, "EPHEMERIS_TYPE": 0, "CLASSIFICATION_TYPE": "U", "NORAD_CAT_ID": 38803, "ELEMENT_SET_NO": 999, "REV_AT_EPOCH": 60400, "BSTAR": 0.0021621, "MEAN_MOTION_DOT": 5.004e-05, "MEAN_MOTION_DDOT": 0}, "tle": {"line1": "1 38803U 99025EUT 25359.95263760  .00005004  00000+0  21621-2 0  9991", "line2": "2 38803  99.1379   4.2982 0063593 358.6160   1.4832 14.23791722604008"}}, "geometry": {"type": "Point", "coordinates": [10.81234300142649, -33.044069665061464]}}, {"type": "Feature", "properties": {"norad_id": 38809, "name": "FENGYUN 1C DEB", "group": "fengyun-1c-debris", "lat": 7.711238136948092, "lon": 9.006785387810815, "alt_km": 800.6610651622277, "timestamp": "2025-12-26T10:30:50.557864+00:00", "meta": {"OBJECT_NAME": "FENGYUN 1C DEB", "OBJECT_ID": "1999-025EUZ", "EPOCH": "2025-12-23T19:49:43.140000", "MEAN_MOTION": 14.18201814, "ECCENTRICITY": 0.02225154, "INCLINATION": 98.5892, "RA_OF_ASC_NODE": 7.6495, "ARG_OF_PERICENTER": 295.9236, "MEAN_ANOMALY": 61.9159, "EPHEMERIS_TYPE": 0, "CLASSIFICATION_TYPE": "U", "NORAD_CAT_ID": 38809, "ELEMENT_SET_NO": 999, "REV_AT_EPOCH": 69363, "BSTAR": 0.00046429524, "MEAN_MOTION_DOT": 1.172e-05, "MEAN_MOTION_DDOT": 0}, "tle": {"line1": "1 38809U 99025EUZ 25357.82619375  .00001172  00000+0  46430-3 0  9996", "line2": "2 38809  98.5892   7.6495 0222515 295.9236  61.9159 14.18201814693633"}}, "geometry": {"type": "Point", "coordinates": [9.006785387810815, 7.711238136948092]}}]}